satname,norad_id,inclination_deg,eccentricity,mean_motion_rev_per_day,perigee_km,apogee_km,l1,l2
STARLINK-1008,44714,53.055,0.0001695,15.06403302,546.0275929371301,548.3752826675445,1 44714U 19074B   25332.59227398  .00001225  00000+0  10112-3 0  9998,2 44714  53.0550 280.4610 0001695  87.0759 273.0424 15.06403302333519
STARLINK-1011,44717,53.0431,0.0002372,16.09183949,247.51090345892408,250.65485657000227,1 44717U 19074E   25332.43675674  .00760383  32135-3  83292-3 0  9992,2 44717  53.0431 245.6954 0002372 156.5575 203.5567 16.09183949333988
STARLINK-1012,44718,53.0527,0.0001991,15.06399566,545.8340509233722,548.591725248807,1 44718U 19074F   25332.83554122  .00003223  00000+0  23520-3 0  9994,2 44718  53.0527 279.3695 0001991  86.1488 273.9729 15.06399566333541
STARLINK-1017,44723,53.0485,0.000599,15.17141647,510.35567252770215,518.613032908258,1 44723U 19074L   25332.82764096  .00025226  00000+0  12670-2 0  9992,2 44723  53.0485 274.0876 0005990  54.0145 306.1403 15.17141647333624
STARLINK-1019,44724,53.0537,0.0003569,15.54122647,402.2833899658999,407.1249820044568,1 44724U 19074M   25332.91667823  .00084051  00000+0  12652-2 0  9994,2 44724  53.0537 272.2824 0003569  99.8906 194.3854 15.54122647  5867
STARLINK-1020,44725,53.0551,0.0001681,15.06397767,546.0542495270829,548.3825540131575,1 44725U 19074N   25332.30660929  .00000109  00000+0  26228-4 0  9996,2 44725  53.0551 301.7434 0001681  86.9837 273.1344 15.06397767333185
STARLINK-1031,44736,53.0494,0.0007518,15.55828354,394.6501626732761,404.8413872136798,1 44736U 19074Z   25332.91667823  .00059662  00000+0  84751-3 0  9997,2 44736  53.0494 259.3392 0007518  44.7521 106.6169 15.55828354  5705
STARLINK-1036,44741,53.0551,0.0001355,15.06395821,546.2859795359091,548.1627524660953,1 44741U 19074AE  25332.20341355  .00008743  00000+0  60516-3 0  9991,2 44741  53.0551 302.2056 0001355  89.3933 270.7211 15.06395821333175
STARLINK-1039,44744,53.0524,0.0001553,15.14766006,520.6174942620391,522.7605802292073,1 44744U 19074AH  25332.39634367  .00006576  00000+0  36634-3 0  9998,2 44744  53.0524 317.8359 0001553 347.5105  12.5849 15.14766006332978
STARLINK-1042,44747,53.0454,0.0003211,15.44573323,430.4451287092479,434.8190046038544,1 44747U 19074AL  25332.10404051  .00023583  00000+0  50690-3 0  9990,2 44747  53.0454 220.2065 0003211 149.5581 210.5611 15.44573323334346
STARLINK-1043,44748,53.0556,0.0001805,15.40870395,442.3078782933371,444.770503398232,1 44748U 19074AM  25332.91667823  .01836506  00000+0  39564-1 0  9991,2 44748  53.0556 317.0185 0001805  84.0295 277.0131 15.40870395  5794
STARLINK-1046,44751,53.0549,0.0001364,15.06406958,546.2456181179487,548.1348473870439,1 44751U 19074AQ  25332.38953336  .00003957  00000+0  28430-3 0  9990,2 44751  53.0549 321.3715 0001364  89.6956 270.4190 15.06406958332924
STARLINK-1047,44752,53.0715,8.71e-05,15.30018532,475.15997954666545,476.3539278734015,1 44752U 19074AR  25332.52804979  .00011312  00000+0  39562-3 0  9997,2 44752  53.0715 257.6643 0000871 257.7758 102.3144 15.30018532333849
STARLINK-1048,44753,53.0566,0.000119,15.06402317,546.3803410427445,548.028572309433,1 44753U 19074AS  25332.14995411  .00000945  00000+0  82303-4 0  9990,2 44753  53.0566 282.4466 0001190  89.8165 270.2961 15.06402317333443
STARLINK-1053,44758,53.0384,0.0005127,15.64796663,370.3618867940859,377.28534721075994,1 44758U 19074AX  25332.42805970  .00069935  00000+0  70382-3 0  9993,2 44758  53.0384 228.2913 0005127 123.1464 237.0043 15.64796663334244
STARLINK-1060,44765,53.0507,0.0008903,15.7122248,349.40721406885586,361.3969537616749,1 44765U 19074BE  25332.91667823  .00184432  00000+0  13997-2 0  9996,2 44765  53.0507 271.2619 0008903  85.8536  53.6533 15.71222480  5957
STARLINK-1063,44768,53.0555,0.0001383,15.06406297,546.2344855709753,548.1500316439051,1 44768U 19074BH  25332.57751174  .00000139  00000+0  28244-4 0  9998,2 44768  53.0555 320.5295 0001383  86.2975 273.8172 15.06406297332965
STARLINK-1067,44771,53.0549,0.000122,15.06404805,546.3519406170462,548.0417220718928,1 44771U 19074BL  25332.30107151  .00008212  00000+0  56947-3 0  9993,2 44771  53.0549 321.7713 0001220  92.8112 267.3016 15.06404805332919
STARLINK-1068,44772,53.0558,0.0001834,15.06362279,546.0570396542034,548.5972999116802,1 44772U 19074BM  25332.62360293  .00001729  00000+0  13508-3 0  9999,2 44772  53.0558 300.3224 0001834  98.9626 261.1571 15.06362279333230
STARLINK-1112,44925,53.0484,0.0004301,15.59958509,384.8670294143785,390.6870686793691,1 44925U 20001M   25332.45031882  .00120662  00000+0  14520-2 0  9993,2 44925  53.0484  28.8378 0004301 328.7917  31.2839 15.59958509325328
STARLINK-1114,44927,53.0541,0.0001207,15.06406613,546.3554029952529,548.0271772444885,1 44927U 20001P   25332.59593591  .00001011  00000+0  86713-4 0  9991,2 44927  53.0541  80.4463 0001207  86.5103 273.6024 15.06406613324616
STARLINK-1123,44930,53.055,0.0001281,15.06400808,546.3219447027132,548.0962183688025,1 44930U 20001S   25332.61068329 -.00000276  00000+0  37842-6 0  9998,2 44930  53.0550  80.3808 0001281  96.0841 264.0294 15.06400808324612
STARLINK-1144,44933,53.0422,0.0001926,15.68714335,361.2792078152261,363.87573102884744,1 44933U 20001V   25332.91667823  .00208628  00000+0  17542-2 0  9999,2 44933  53.0422   1.9921 0001926 172.6024 351.6131 15.68714335  5854
STARLINK-1094,44941,53.0547,0.0001459,15.06436824,546.0883080922895,548.1090918695436,1 44941U 20001AD  25332.55724163  .00011230  00000+0  77083-3 0  9997,2 44941  53.0547  60.6216 0001459  72.1424 287.9724 15.06436824324881
STARLINK-1122,44949,53.054,0.0001066,15.06401449,546.4688752826632,547.9453586484005,1 44949U 20001AM  25332.51300947  .00001659  00000+0  13026-3 0  9992,2 44949  53.0540  60.8148 0001066  91.9730 268.1382 15.06401449324876
STARLINK-1080,44961,53.054,0.0001457,15.06414298,546.158720073995,548.1767538743488,1 44961U 20001AZ  25332.51117660  .00011330  00000+0  77798-3 0  9997,2 44961  53.0540  40.8272 0001457  82.6049 277.5105 15.06414298325166
STARLINK-1090,44968,53.0544,0.000145,15.06403619,546.19629231411,548.2046401793214,1 44968U 20001BG  25332.51485336  .00005847  00000+0  41109-3 0  9995,2 44968  53.0544  40.8114 0001450  93.2373 266.8782 15.06403619325160
STARLINK-1107,44972,53.0022,0.0007712,15.86621171,306.60454925113027,316.92305224620486,1 44972U 20001BL  25332.91667823  .00540025  00000+0  19582-2 0  9998,2 44972  53.0022 299.1086 0007712  84.2030  49.5235 15.86621171  6023
STARLINK-1132,45044,53.0555,0.0001443,15.0639966,546.2132720422269,548.2119279367844,1 45044U 20006A   25332.40796368  .00002750  00000+0  20343-3 0  9991,2 45044  53.0555   1.2923 0001443  90.3202 269.7952 15.06399660321479
STARLINK-1131,45047,53.0552,0.0001367,15.06401071,546.2615807803168,548.1549701786334,1 45047U 20006D   25332.45042066  .00004248  00000+0  30386-3 0  9990,2 45047  53.0552  21.6408 0001367  80.8019 279.3125 15.06401071321196
STARLINK-1134,45048,53.0396,0.0005146,15.30969402,469.39318260995515,476.44428917333516,1 45048U 20006E   25332.78166154  .00068894  00000+0  22614-2 0  9993,2 45048  53.0396 353.3676 0005146 275.7104  84.3309 15.30969402321624
STARLINK-1156,45054,53.0561,0.0001075,15.06399419,546.4688634587683,547.9578137815715,1 45054U 20006L   25332.42085832  .00000690  00000+0  65209-4 0  9993,2 45054  53.0561  21.2295 0001075  95.3147 264.7964 15.06399419321194
STARLINK-1159,45057,53.0542,0.0004259,15.54272479,401.37964159702915,407.15689440431106,1 45057U 20006P   25332.81528060  .00103575  00000+0  15450-2 0  9991,2 45057  53.0542  10.7989 0004259  21.3066 338.8121 15.54272479321383
STARLINK-1166,45060,53.0546,0.0001388,15.06401098,546.2469548157123,548.1694306412128,1 45060U 20006S   25332.44666848  .00009861  00000+0  67992-3 0  9993,2 45060  53.0546  21.1172 0001388  99.2958 260.8188 15.06401098321201
STARLINK-1169,45061,53.0552,0.0001355,15.06403541,546.2623220454652,548.1390885636029,1 45061U 20006T   25332.52038715 -.00000805  00000+0 -35179-4 0  9993,2 45061  53.0552  20.7856 0001355  91.6623 268.4521 15.06403541321213
STARLINK-1171,45062,53.0542,0.0008594,15.37240809,448.4009898160557,460.1445357162984,1 45062U 20006U   25332.41843436  .00079920  00000+0  21448-2 0  9990,2 45062  53.0542  13.3025 0008594   9.3642 350.7519 15.37240809321311
STARLINK-1133,45064,53.0555,0.0001182,15.06399705,546.3938857645207,548.031038377354,1 45064U 20006W   25332.78393127  .00002115  00000+0  16082-3 0  9990,2 45064  53.0555 359.6022 0001182  90.9941 269.1183 15.06399705321534
STARLINK-1167,45071,53.0556,0.0001396,15.06392672,546.267235499884,548.2007990879129,1 45071U 20006AD  25332.80973449  .00001441  00000+0  11566-3 0  9995,2 45071  53.0556 359.4855 0001396  91.7642 268.3507 15.06392672321536
STARLINK-1168,45072,53.0549,0.000139,15.06397546,546.2564546100512,548.181703600042,1 45072U 20006AE  25332.34898861  .00001768  00000+0  13757-3 0  9995,2 45072  53.0549   1.5543 0001390  80.9580 279.1566 15.06397546321465
STARLINK-1172,45074,53.0553,0.0001417,15.06406977,546.208855660052,548.17149338131,1 45074U 20006AG  25332.36004515  .00008067  00000+0  55972-3 0  9998,2 45074  53.0553   1.5068 0001417  82.5587 277.5563 15.06406977321467
STARLINK-1153,45080,53.0557,0.0001314,15.06386418,546.343188854551,548.1631813952017,1 45080U 20006AN  25332.80236328 -.00000380  00000+0 -66209-5 0  9992,2 45080  53.0557 359.5172 0001314 102.0100 258.1036 15.06386418321530
STARLINK-1151,45081,53.0548,0.0001879,15.1001893,534.8430232350956,537.4414093645819,1 45081U 20006AP  25332.91667823  .00053576  00000+0  32519-2 0  9990,2 45081  53.0548 359.0323 0001879  86.5278 280.0030 15.10018930  5681
STARLINK-1185,45087,53.0557,0.00013,15.06404581,546.297224381321,548.0978113559659,1 45087U 20006AV  25332.29922811  .00003524  00000+0  25529-3 0  9990,2 45087  53.0557 341.7772 0001300  89.9610 270.1528 15.06404581321745
